{
  "type": "FeatureCollection",
  "features": [
    {
      "type": "Feature",
      "properties": {
        "norad_id": 46277,
        "name": "NEMO-HD",
        "group": "resource",
        "lat": -60.15831599164633,
        "lon": 69.51438027334329,
        "alt_km": 451.9903093442508,
        "timestamp": "2025-12-23T18:59:31.647856+00:00",
        "meta_object_name": "NEMO-HD",
        "meta_object_id": "2020-061F",
        "meta_epoch": "2025-12-23T06:47:06.215712",
        "meta_mean_motion": 15.40533642,
        "meta_eccentricity": 0.00012021,
        "meta_inclination": 97.2191,
        "meta_ra_of_asc_node": 56.2468,
        "meta_arg_of_pericenter": 52.2765,
        "meta_mean_anomaly": 307.8591,
        "meta_ephemeris_type": 0,
        "meta_classification_type": "U",
        "meta_norad_cat_id": 46277,
        "meta_element_set_no": 999,
        "meta_rev_at_epoch": 29486,
        "meta_bstar": 0.00026332717,
        "meta_mean_motion_dot": 0.00010612,
        "meta_mean_motion_ddot": 0,
        "tle_line1": "1 46277U 20061F   25357.28271083  .00010612  00000+0  26333-3 0  9997",
        "tle_line2": "2 46277  97.2191  56.2468 0001202  52.2765 307.8591 15.40533642294865"
      },
      "geometry": {
        "type": "Point",
        "coordinates": [
          69.51438027334329,
          -60.15831599164633
        ]
      }
    },
    {
      "type": "Feature",
      "properties": {
        "norad_id": 46984,
        "name": "SENTINEL-6A",
        "group": "resource",
        "lat": -54.55252537772391,
        "lon": 100.70238186792446,
        "alt_km": 1338.5630058848546,
        "timestamp": "2025-12-23T18:59:31.647865+00:00",
        "meta_object_name": "SENTINEL-6A",
        "meta_object_id": "2020-086A",
        "meta_epoch": "2025-12-23T02:27:21.718944",
        "meta_mean_motion": 12.80930775,
        "meta_eccentricity": 0.00077428,
        "meta_inclination": 66.0397,
        "meta_ra_of_asc_node": 140.7845,
        "meta_arg_of_pericenter": 269.406,
        "meta_mean_anomaly": 90.6068,
        "meta_ephemeris_type": 0,
        "meta_classification_type": "U",
        "meta_norad_cat_id": 46984,
        "meta_element_set_no": 999,
        "meta_rev_at_epoch": 23777,
        "meta_bstar": -4.1853643e-05,
        "meta_mean_motion_dot": -7.1e-07,
        "meta_mean_motion_ddot": 0,
        "tle_line1": "1 46984U 20086A   25357.10233471 -.00000071  00000+0 -41854-4 0  9995",
        "tle_line2": "2 46984  66.0397 140.7845 0007742 269.4060  90.6068 12.80930775237777"
      },
      "geometry": {
        "type": "Point",
        "coordinates": [
          100.70238186792446,
          -54.55252537772391
        ]
      }
    },
    {
      "type": "Feature",
      "properties": {
        "norad_id": 48079,
        "name": "GAOFEN-12 02",
        "group": "resource",
        "lat": -7.532088891615964,
        "lon": 170.6811546070666,
        "alt_km": 631.9224637003917,
        "timestamp": "2025-12-23T18:59:31.647874+00:00",
        "meta_object_name": "GAOFEN-12 02",
        "meta_object_id": "2021-026A",
        "meta_epoch": "2025-12-23T06:47:43.424736",
        "meta_mean_motion": 14.80687026,
        "meta_eccentricity": 0.00035815,
        "meta_inclination": 97.9856,
        "meta_ra_of_asc_node": 351.2389,
        "meta_arg_of_pericenter": 80.0109,
        "meta_mean_anomaly": 280.1507,
        "meta_ephemeris_type": 0,
        "meta_classification_type": "U",
        "meta_norad_cat_id": 48079,
        "meta_element_set_no": 999,
        "meta_rev_at_epoch": 25573,
        "meta_bstar": 6.7331092e-05,
        "meta_mean_motion_dot": 4.65e-06,
        "meta_mean_motion_ddot": 0,
        "tle_line1": "1 48079U 21026A   25357.28314149  .00000465  00000+0  67331-4 0  9991",
        "tle_line2": "2 48079  97.9856 351.2389 0003581  80.0109 280.1507 14.80687026255737"
      },
      "geometry": {
        "type": "Point",
        "coordinates": [
          170.6811546070666,
          -7.532088891615964
        ]
      }
    },
    {
      "type": "Feature",
      "properties": {
        "norad_id": 48268,
        "name": "PLEIADES NEO 3",
        "group": "resource",
        "lat": -65.13289218867882,
        "lon": 87.49434182629611,
        "alt_km": 632.1921100705322,
        "timestamp": "2025-12-23T18:59:31.647883+00:00",
        "meta_object_name": "PLEIADES NEO 3",
        "meta_object_id": "2021-034A",
        "meta_epoch": "2025-12-23T09:33:59.352768",
        "meta_mean_motion": 14.81670917,
        "meta_eccentricity": 0.0001354,
        "meta_inclination": 97.8946,
        "meta_ra_of_asc_node": 69.6869,
        "meta_arg_of_pericenter": 98.0845,
        "meta_mean_anomaly": 262.0521,
        "meta_ephemeris_type": 0,
        "meta_classification_type": "U",
        "meta_norad_cat_id": 48268,
        "meta_element_set_no": 999,
        "meta_rev_at_epoch": 25162,
        "meta_bstar": 1.0764e-05,
        "meta_mean_motion_dot": 3.3e-07,
        "meta_mean_motion_ddot": 0,
        "tle_line1": "1 48268U 21034A   25357.39860362  .00000033  00000+0  10764-4 0  9994",
        "tle_line2": "2 48268  97.8946  69.6869 0001354  98.0845 262.0521 14.81670917251622"
      },
      "geometry": {
        "type": "Point",
        "coordinates": [
          87.49434182629611,
          -65.13289218867882
        ]
      }
    },
    {
      "type": "Feature",
      "properties": {
        "norad_id": 49070,
        "name": "PLEIADES NEO 4",
        "group": "resource",
        "lat": 64.9886088781167,
        "lon": -92.62636279117446,
        "alt_km": 616.9506665053386,
        "timestamp": "2025-12-23T18:59:31.647892+00:00",
        "meta_object_name": "PLEIADES NEO 4",
        "meta_object_id": "2021-073E",
        "meta_epoch": "2025-12-20T17:32:43.596096",
        "meta_mean_motion": 14.81672155,
        "meta_eccentricity": 0.00013181,
        "meta_inclination": 97.8951,
        "meta_ra_of_asc_node": 67.0539,
        "meta_arg_of_pericenter": 90.4145,
        "meta_mean_anomaly": 269.7219,
        "meta_ephemeris_type": 0,
        "meta_classification_type": "U",
        "meta_norad_cat_id": 49070,
        "meta_element_set_no": 999,
        "meta_rev_at_epoch": 23494,
        "meta_bstar": -3.817265e-05,
        "meta_mean_motion_dot": -3.52e-06,
        "meta_mean_motion_ddot": 0,
        "tle_line1": "1 49070U 21073E   25354.73106014 -.00000352  00000+0 -38173-4 0  9991",
        "tle_line2": "2 49070  97.8951  67.0539 0001318  90.4145 269.7219 14.81672155234945"
      },
      "geometry": {
        "type": "Point",
        "coordinates": [
          -92.62636279117446,
          64.9886088781167
        ]
      }
    },
    {
      "type": "Feature",
      "properties": {
        "norad_id": 49260,
        "name": "LANDSAT 9",
        "group": "resource",
        "lat": -53.87201203856845,
        "lon": -125.66319954159862,
        "alt_km": 710.1582584082962,
        "timestamp": "2025-12-23T18:59:31.647901+00:00",
        "meta_object_name": "LANDSAT 9",
        "meta_object_id": "2021-088A",
        "meta_epoch": "2025-12-23T04:44:02.785344",
        "meta_mean_motion": 14.57108265,
        "meta_eccentricity": 0.00011091,
        "meta_inclination": 98.208,
        "meta_ra_of_asc_node": 65.1561,
        "meta_arg_of_pericenter": 92.7518,
        "meta_mean_anomaly": 267.3807,
        "meta_ephemeris_type": 0,
        "meta_classification_type": "U",
        "meta_norad_cat_id": 49260,
        "meta_element_set_no": 999,
        "meta_rev_at_epoch": 22537,
        "meta_bstar": 0.00010313573,
        "meta_mean_motion_dot": 4.19e-06,
        "meta_mean_motion_ddot": 0,
        "tle_line1": "1 49260U 21088A   25357.19725446  .00000419  00000+0  10314-3 0  9995",
        "tle_line2": "2 49260  98.2080  65.1561 0001109  92.7518 267.3807 14.57108265225378"
      },
      "geometry": {
        "type": "Point",
        "coordinates": [
          -125.66319954159862,
          -53.87201203856845
        ]
      }
    },
    {
      "type": "Feature",
      "properties": {
        "norad_id": 51444,
        "name": "CSG-2",
        "group": "resource",
        "lat": 14.244826701489638,
        "lon": 0.9622805988065489,
        "alt_km": 623.4234012554816,
        "timestamp": "2025-12-23T18:59:31.647909+00:00",
        "meta_object_name": "CSG-2",
        "meta_object_id": "2022-008A",
        "meta_epoch": "2025-12-23T06:54:22.245408",
        "meta_mean_motion": 14.82154514,
        "meta_eccentricity": 0.00015178,
        "meta_inclination": 97.8801,
        "meta_ra_of_asc_node": 178.4515,
        "meta_arg_of_pericenter": 82.5575,
        "meta_mean_anomaly": 277.5811,
        "meta_ephemeris_type": 0,
        "meta_classification_type": "U",
        "meta_norad_cat_id": 51444,
        "meta_element_set_no": 999,
        "meta_rev_at_epoch": 21053,
        "meta_bstar": 7.1557244e-05,
        "meta_mean_motion_dot": 5.18e-06,
        "meta_mean_motion_ddot": 0,
        "tle_line1": "1 51444U 22008A   25357.28775747  .00000518  00000+0  71557-4 0  9991",
        "tle_line2": "2 51444  97.8801 178.4515 0001517  82.5575 277.5811 14.82154514210537"
      },
      "geometry": {
        "type": "Point",
        "coordinates": [
          0.9622805988065489,
          14.244826701489638
        ]
      }
    }
  ]
}